"{\n    \"CCSDS_OMM_VERS\": \"2.0\",\n    \"COMMENT\": \"GENERATED VIA SPACE-TRACK.ORG API\",\n    \"CREATION_DATE\": \"2025-08-30T11:24:46\",\n    \"ORIGINATOR\": \"18 SPCS\",\n    \"OBJECT_NAME\": \"BEIDOU 3M1\",\n    \"OBJECT_ID\": \"2017-069A\",\n    \"CENTER_NAME\": \"EARTH\",\n    \"REF_FRAME\": \"TEME\",\n    \"TIME_SYSTEM\": \"UTC\",\n    \"MEAN_ELEMENT_THEORY\": \"SGP4\",\n    \"EPOCH\": \"2025-08-30T02:29:03.912864\",\n    \"MEAN_MOTION\": \"1.8623155235\",\n    \"ECCENTRICITY\": \"0.00075390727\",\n    \"INCLINATION\": \"56.434174\",\n    \"RA_OF_ASC_NODE\": \"72.690381\",\n    \"ARG_OF_PERICENTER\": \"319.20301\",\n    \"MEAN_ANOMALY\": \"40.797845\",\n    \"EPHEMERIS_TYPE\": \"0\",\n    \"CLASSIFICATION_TYPE\": \"U\",\n    \"NORAD_CAT_ID\": \"43001\",\n    \"ELEMENT_SET_NO\": \"999\",\n    \"REV_AT_EPOCH\": \"5318\",\n    \"BSTAR\": \"0\",\n    \"MEAN_MOTION_DOT\": \"-0.000000240393\",\n    \"MEAN_MOTION_DDOT\": \"0\",\n    \"TLE_LINE0\": \"0 BEIDOU 3M1\",\n    \"TLE_LINE1\": \"1 43001U 17069A   25242.10351751 -.00000024  00000-0  00000-0 0  9996\",\n    \"TLE_LINE2\": \"2 43001  56.4342  72.6904 0007539 319.2030  40.7978  1.86231552 53189\",\n    \"SEMIMAJOR_AXIS\": \"27906.133\",\n    \"PERIOD\": \"773.231\",\n    \"APOAPSIS\": \"21549.037\",\n    \"PERIAPSIS\": \"21506.960\",\n    \"OBJECT_TYPE\": \"PAYLOAD\",\n    \"DECAYED\": \"0\"\n}"